JILIN-1 GAOFEN 03D11    
1 51835U 22019M   25090.51686254  .00034522  00000+0  95882-3 0  9999
2 51835  97.4013 169.8172 0005156 306.6984  53.3786 15.36796840171296
JILIN-1 GAOFEN 03D17    
1 51838U 22019Q   25090.53746146  .00092668  00000+0  12406-2 0  9996
2 51838  97.4004 174.9760 0005916 262.4765  97.5819 15.57674173171642
JILIN-1 GAOFEN 03D15    
1 51839U 22019R   25090.51545269  .00032058  00000+0  92277-3 0  9990
2 51839  97.3987 169.3582 0003973 334.0265  26.0778 15.35699400171281
JILIN-1 GAOFEN 03D10    
1 51840U 22019S   25090.53139746  .00034801  00000+0  96348-3 0  9994
2 51840  97.3989 169.9465 0002536 188.6808 171.4393 15.36904263171309
JILIN-1 GAOFEN 03D12    
1 51841U 22019T   25090.53528841  .00032401  00000+0  92907-3 0  9994
2 51841  97.3974 169.3202 0004173 261.1837  98.8934 15.35816932171289
JILIN-1 GAOFEN 03D18    
1 51844U 22019W   25090.53752327  .00034462  00000+0  94966-3 0  9991
2 51844  97.3969 169.2204 0008941 287.4266  72.6001 15.37015432171183
2022-023F               
1 51951U 22023F   25090.52679840  .00036115  25416-6  15612-2 0  9994
2 51951  63.4980 337.5322 0087118 341.4781  18.3166 15.18725747158120
CZ-4C R/B               
1 52085U 22027B   25089.57553108 -.00000047  00000+0  52352-4 0  9993
2 52085  63.3955 159.6194 0193161  24.7027 336.3110 13.65438064151465
MERIDIAN 10             
1 52145U 22030A   25089.31738805  .00000244  00000+0  00000+0 0  9991
2 52145  62.6542 187.5080 6753372 273.5135  17.6629  2.00600448 22124
OMNI-L1                 
1 52157U 22033A   25089.78612122  .00003559  00000+0  47436-3 0  9991
2 52157  97.8701 172.4702 0004179 290.5802  69.4962 14.80245097161806
ENMAP                   
1 52159U 22033C   25090.51497071  .00001244  00000+0  19260-3 0  9993
2 52159  97.9804 174.1128 0001123 112.6621 247.4707 14.74953632161396
ARCSAT-1                
1 52161U 22033E   25089.71615335  .00020484  00000+0  48283-3 0  9995
2 52161  97.2948 174.0013 0006108  23.5781 336.5745 15.41924442167129
BRO-7                   
1 52174U 22033T   25090.50291849  .00066954  00000+0  62015-3 0  9999
2 52174  97.2990 185.4513 0004958 292.0462  68.0272 15.67287499167945
GLOBAL-18               
1 52196U 22034B   25090.54895117  .00035971  00000+0  91097-3 0  9993
2 52196  52.9868 193.0690 0007649 347.6929  12.3885 15.39391532168741
GLOBAL-20               
1 52197U 22034C   25090.52107541  .06154909  12350-4  62402-3 0  9992
2 52197  52.9605 131.9085 0005441 328.3915  31.6801 16.37163484169586
GAOFEN-3 03             
1 52200U 22035A   25090.52858620  .00000198  00000+0  73169-4 0  9990
2 52200  98.4130 100.4262 0001726  92.6765 267.4622 14.42222463157059
DAQI 1                  
1 52257U 22039A   25090.54057420  .00000944  00000+0  21711-3 0  9991
2 52257  98.2401  30.8126 0003270 163.3764 196.7542 14.57663567157455
JILIN-1 GAOFEN 4A       
1 52388U 22046A   25090.55982588  .00058332  00000+0  13265-2 0  9995
2 52388  97.4840 186.1227 0010186 163.6133 196.5446 15.42742306161698
JILIN-1 GAOFEN 3D05     
1 52390U 22046C   25090.53149805  .00037313  00000+0  10566-2 0  9990
2 52390  97.4822 186.4345 0001054 130.9653 229.1682 15.36186660161753
JILIN-1 GAOFEN 3D07     
1 52392U 22046E   25090.51890149  .00047308  00000+0  11379-2 0  9992
2 52392  97.4909 188.7563 0000948 233.5013 126.6146 15.41157489161848
BRO-6                   
1 52422U 22047AE  25090.45927845  .00016649  00000+0  51023-3 0  9999
2 52422  97.3665 173.8198 0005355 214.0597 146.0303 15.33848793162980
JILIN-1 GAOFEN 3D27     
1 52444U 22048B   25090.53127022  .00031738  00000+0  10146-2 0  9998
2 52444  97.5718 178.7678 0010116 196.7284 163.3625 15.32332703161001
JILIN-1 GAOFEN 3D28     
1 52445U 22048C   25090.55007095  .00031565  00000+0  99767-3 0  9993
2 52445  97.5684 178.5222 0008431 212.6846 147.3874 15.32712751161010
CONNECTA T1.1           
1 52739U 22057H   25090.27322362  .00047598  00000+0  94849-3 0  9994
2 52739  97.6030 226.0692 0006269 225.6478 134.4258 15.46727712158235
VIGORIDE-3              
1 52760U 22057AE  25090.35615325  .00007151  00000+0  31533-3 0  9993
2 52760  97.6019 217.2357 0009052 227.1018 132.9459 15.22071669157698
ION SCV-006             
1 52761U 22057AF  25090.38299979  .00015179  00000+0  46876-3 0  9995
2 52761  97.5536 218.6151 0022205 261.0117  98.8612 15.33400036157991
SHERPA-AC1              
1 52763U 22057AH  25089.94005467  .00010649  00000+0  39154-3 0  9992
2 52763  97.6078 220.3042 0008805 215.2875 144.7782 15.28048002157833
PLATFORM-1              
1 52770U 22057AQ  25089.63125133  .00095883  00000+0  16530-2 0  9994
2 52770  97.5993 229.0323 0007400 217.8385 142.2347 15.50675673158418
OMNI-L2                 
1 52771U 22057AR  25089.94208008  .00003460  00000+0  47067-3 0  9992
2 52771  97.5113 176.3642 0006178 348.6924  11.4149 14.79351138155257
STEP CUBE LAB-II        
1 52897U 22065D   25090.48843918  .00002151  00000+0  43706-3 0  9998
2 52897  98.1587 232.7894 0008062 338.8959  21.1909 14.62123827146781
RANDEV                  
1 52898U 22065E   25090.38916468  .00002293  00000+0  46222-3 0  9992
2 52898  98.1576 232.8667 0007388 341.1898  18.9029 14.62429351146506
SNUGLITE-II             
1 52899U 22065F   25090.11810984  .00002687  00000+0  53398-3 0  9999
2 52899  98.1563 232.8323 0006957 342.0751  18.0204 14.62929977146180
MIMAN                   
1 52900U 22065G   25090.27914253  .00001532  00000+0  32190-3 0  9998
2 52900  98.1607 231.9441 0007003 339.2043  20.8872 14.60992361145746
STARLINK-4362           
1 53043U 22077A   25090.51640119  .00001777  00000+0  14287-3 0  9992
2 53043  97.6564 273.2542 0002283  85.6688 274.4797 15.01267569148729
LARES-2                 
1 53105U 22080A   25090.06768027  .00000017  00000+0  00000+0 0  9994
2 53105  70.1416  97.3000 0004875  71.4821 288.6348  6.38965262 63354
ROBUSTA-1F (MTCUBE 2)   
1 53109U 22080E   25088.99815625 -.00000003  00000+0  00000+0 0  9990
2 53109  70.1197  92.7203 0008508  22.8100 337.2936  6.42584440 63528
STARLINK-4410           
1 53204U 22084R   25089.76990303  .00000400  00000+0  35706-4 0  9999
2 53204  97.6538 152.5089 0002073  91.3075 268.8387 15.01257785148377
COSMOS 2558             
1 53323U 22089A   25089.81766622  .00028772  00000+0  85624-3 0  9992
2 53323  97.2329 187.8384 0005999 166.6624 193.4779 15.34661103149185
TECMS                   
1 53346U 22090A   25090.51485608  .00007757  00000+0  35394-3 0  9999
2 53346  97.3616 164.7923 0003452 230.2484 129.8448 15.20883624147517
DONGPO 04               
1 53451U 22098H   25090.55303326  .00039312  00000+0  10740-2 0  9993
2 53451  97.5358 200.0488 0005068 177.0109 183.1167 15.37282932146362
DONGPO 02               
1 53452U 22098J   25090.50281436  .00033474  00000+0  10466-2 0  9994
2 53452  97.5221 197.4901 0005564 134.0151 226.1550 15.33065563146282
DONGPO 01               
1 53453U 22098K   25090.54866436  .00031496  00000+0  99583-3 0  9998
2 53453  97.5293 198.1263 0002150 151.3227 208.8133 15.32733421146283
STARLINK-4400           
1 53468U 22099D   25089.93129070  .00002310  00000+0  18438-3 0  9995
2 53468  97.6545 212.6744 0001734  84.0573 276.0848 15.01260711144640
STARLINK-4621           
1 53676U 22105AE  25089.94092062  .00005476  00000+0  43050-3 0  9999
2 53676  97.6541 332.6773 0003376  75.6278 284.5321 15.01263166141941
SHERPA-LTC2             
1 53754U 22107BG  25089.85457638  .00011249  00000+0  58402-3 0  9994
2 53754  53.2343 288.7802 0418964  71.7098 292.8980 14.63777854137488
CENTISPACE-1 S3         
1 53757U 22108A   25090.54719165  .00001012  00000+0  24571-3 0  9999
2 53757  53.5321  84.5180 0008239 243.7708 116.2420 14.60446198136837
CENTISPACE-1 S4         
1 53758U 22108B   25090.50661498  .00001250  00000+0  29132-3 0  9993
2 53758  53.5296  84.0503 0007942 227.6303 132.4000 14.60942372136834
BLUEWALKER-3            
1 53807U 22111AL  25090.29093159  .00008551  00000+0  28338-3 0  9999
2 53807  53.2314 303.4692 0005661 237.4403 122.6053 15.32106510142179
YUNHAI-1 03             
1 53877U 22115A   25090.56455022  .00000665  00000+0  25735-3 0  9997
2 53877  98.5382  89.7930 0000783  13.8178 346.3028 14.33303590132136
CENTISPACE-1 S5         
1 54020U 22126A   25090.57319326  .00002526  00000+0  54017-3 0  9990
2 54020  54.9983 182.4116 0014071 145.3350 214.8563 14.61701923132287
CENTISPACE-1 S6         
1 54021U 22126B   25090.52816098  .00002123  00000+0  46397-3 0  9999
2 54021  54.9986 182.8175 0015898 147.4776 212.7200 14.61295909132268
OTB-3-GAZELLE           
1 54023U 22127A   25090.53917280  .00000413  00000+0  13741-3 0  9995
2 54023  98.3660  84.8707 0014505  84.8145 275.4699 14.42457623130540
ASO-S                   
1 54029U 22129A   25090.55163216  .00000544  00000+0  14629-3 0  9998
2 54029  98.2744  97.1405 0014703  18.2970 341.8751 14.51794149131193
HJ-2E                   
1 54035U 22132A   25090.53463837  .00015410  00000+0  71273-3 0  9995
2 54035  97.3832  98.2820 0009575 111.7028 248.5228 15.20197428137108
COSMOS 2561             
1 54109U 22137A   25089.81681108  .00014797  00000+0  37694-3 0  9990
2 54109  96.9777 162.4379 0012019 204.2892 155.7790 15.39569885137877
GONETS-M 23             
1 54150U 22139A   25090.52403854  .00000023  00000+0  94307-4 0  9990
2 54150  82.5006 263.3417 0022024 107.6075 252.7413 12.42888023110655
GONETS-M 24             
1 54151U 22139B   25090.49754777  .00000040  00000+0  21325-3 0  9998
2 54151  82.4925 262.7203 0017082 117.9092 242.3720 12.42891056110658
GONETS-M 25             
1 54152U 22139C   25090.56432586  .00000016  00000+0  44578-4 0  9997
2 54152  82.4990 263.1283 0020872 116.1666 244.1563 12.42886157110665
SKIF-D                  
1 54153U 22139D   25090.17045210  .00000037  00000+0  00000+0 0  9999
2 54153  89.9774  96.7753 0008127 320.9356  39.0568  5.00438317 41947
